GALAXY 11 (G-11)        
1 26038U 99071A   25030.29624127  .00000027  00000+0  00000+0 0  9995
2 26038   5.4612  76.6351 0007319 285.8210  85.5185  0.99028445 92030
INTELSAT 9 (IS-9)       
1 26451U 00043A   25030.12447858 -.00000007  00000+0  00000+0 0  9990
2 26451   9.2796  53.7241 0002740 264.0489 282.8820  1.00271740 39094
INTELSAT 1R (IS-1R)     
1 26608U 00072A   25030.25479929 -.00000157  00000+0  00000+0 0  9990
2 26608   6.8201  70.2743 0010060 249.2456 264.5836  0.98974374 36254
INTELSAT 10 (IS-10)     
1 26766U 01019A   25030.12447858 -.00000002  00000+0  00000+0 0  9998
2 26766   7.8673  64.3932 0003910 243.8625 292.2468  1.00271855 40578
INTELSAT 901 (IS-901)   
1 26824U 01024A   25030.46313869 -.00000195  00000+0  00000+0 0  9993
2 26824   0.0218 111.3965 0002308 240.8585 276.9110  1.00271176 17948
INTELSAT 902 (IS-902)   
1 26900U 01039A   25030.45870779 -.00000277  00000+0  00000+0 0  9992
2 26900   4.8415  77.9288 0004377 236.3953 290.6192  1.00272331 85656
INTELSAT 904 (IS-904)   
1 27380U 02007A   25030.03375860 -.00000209  00000+0  00000+0 0  9991
2 27380   5.6535  75.2091 0003071 246.3732 150.5616  1.00270284 46725
DIRECTV 5 (TEMPO 1)     
1 27426U 02023A   25030.30388676 -.00000050  00000+0  00000+0 0  9993
2 27426   3.5861  81.6406 0003429 244.0596 163.3439  1.00271069 83083
INTELSAT 905 (IS-905)   
1 27438U 02027A   25030.46374685 -.00000180  00000+0  00000+0 0  9996
2 27438   5.4817  75.8410 0002645 242.2512 314.2857  1.00272673 46324
GALAXY 3C (G-3C)        
1 27445U 02030A   25030.44984597 -.00000146  00000+0  00000+0 0  9997
2 27445   2.4395  84.5412 0002649  56.1546  56.3168  1.00270678 41453
INTELSAT 906 (IS-906)   
1 27513U 02041A   25030.19554681  .00000019  00000+0  00000+0 0  9992
2 27513   4.5193  79.1396 0005317 208.5680 336.4771  1.00272588 81982
GALAXY 23 (G-23)        
1 27854U 03034A   25030.44463314  .00000019  00000+0  00000+0 0  9993
2 27854   1.8952  86.0744 0002779 226.7385 216.2514  1.00271864 78702
GALAXY 13 (HORIZONS-1)  
1 27954U 03044A   25030.43881214  .00000140  00000+0  00000+0 0  9992
2 27954   0.1162  96.2426 0002118 243.7191 157.8832  1.00272373 41539
INTELSAT 10-02          
1 28358U 04022A   25030.32656257 -.00000003  00000+0  00000+0 0  9992
2 28358   0.0360 263.3231 0000688  89.8254 253.2424  1.00271768 75517
XM-3 (RHYTHM)           
1 28626U 05008A   25026.80802674 -.00000188  00000+0  00000+0 0  9993
2 28626   0.0210 100.7247 0004213 124.7177 106.6323  1.00266564 37549
DIRECTV 8               
1 28659U 05019A   25030.44498066  .00000009  00000+0  00000+0 0  9993
2 28659   0.0220  90.5949 0003109 234.2267 206.2509  1.00270257 72031
GALAXY 28 (G-28)        
1 28702U 05022A   25030.45097542 -.00000179  00000+0  00000+0 0  9990
2 28702   2.0001  85.2536 0006408 201.3697 276.6235  1.00271692 46941
GALAXY 14 (G-14)        
1 28790U 05030A   25030.43681390 -.00000048  00000+0  00000+0 0  9999
2 28790   3.7217  81.1909 0003593 291.9281 113.6987  0.98914839 71259
SPACEWAY 2              
1 28903U 05046B   25030.45410311 -.00000105  00000+0  00000+0 0  9991
2 28903   4.1790  77.5822 0001650  50.7199  92.0155  0.99060782 46293
GALAXY 16 (G-16)        
1 29236U 06023A   25030.30605876 -.00000120  00000+0  00000+0 0  9990
2 29236   0.0579 254.6109 0002830  63.6472 182.6845  1.00277717 67934
DIRECTV 9S              
1 29494U 06043A   25030.44854277 -.00000106  00000+0  00000+0 0  9998
2 29494   1.1185  87.1595 0002949 229.5827 233.4382  1.00270976 46344
GALAXY 17 (G-17)        
1 31307U 07016B   25030.45175734 -.00000199  00000+0  00000+0 0  9992
2 31307   1.6936  86.4301 0005303 207.0810 274.0356  1.00271818 64760
DIRECTV 10              
1 31862U 07032A   25030.30536373 -.00000095  00000+0  00000+0 0  9995
2 31862   0.0046 312.7777 0000577 354.5438 189.5834  1.00270782 40556
INTELSAT 11 (IS-11)     
1 32253U 07044B   25030.46009787 -.00000262  00000+0  00000+0 0  9990
2 32253   2.2526  84.9768 0003929 237.9523 289.6215  1.00272209 63454
HORIZONS-2              
1 32388U 07063B   25030.45392935 -.00000246  00000+0  00000+0 0  9991
2 32388   1.3002  87.0009 0001935 234.8232 257.6978  1.00273063 62776
DIRECTV 11              
1 32729U 08013A   25028.16269502 -.00000111  00000+0  00000+0 0  9995
2 32729   0.0270 280.1126 0000868  85.8064  81.1061  1.00259914 40526
GALAXY 18 (G-18)        
1 32951U 08024A   25030.22986458  .00000033  00000+0  00000+0 0  9992
2 32951   0.0152  75.5565 0002986 245.3885 128.4903  1.00271825 40808
INTELSAT 25 (IS-25)     
1 33153U 08034A   25030.46235677 -.00000217  00000+0  00000+0 0  9999
2 33153   1.4070  86.6545 0003018 233.7204 304.5021  1.00271803 60650
GALAXY 19 (G-19)        
1 33376U 08045A   25030.16357478 -.00000131  00000+0  00000+0 0  9994
2 33376   0.0600 265.4618 0002791  48.5036 137.5569  1.00272621 59862
FM-5                    
1 35493U 09034A   25030.02281167 -.00000191  00000+0  00000+0 0  9997
2 35493   0.0135  86.6392 0002183  87.7328 237.2030  1.00267182 41591
INTELSAT 14 (IS-14)     
1 36097U 09064A   25030.10241093 -.00000266  00000+0  00000+0 0  9997
2 36097   0.0146  24.8190 0002546 287.9680 168.6185  1.00266171 55569
INTELSAT 15 (IS-15)     
1 36106U 09067A   25030.41405123 -.00000178  00000+0  00000+0 0  9993
2 36106   0.0162  70.5522 0002215 248.8327  44.6896  1.00271455 36182
DIRECTV 12              
1 36131U 09075A   25030.16244534 -.00000095  00000+0  00000+0 0  9997
2 36131   0.0025 267.8391 0000553 116.1341  61.4240  1.00270784 41505
INTELSAT 16 (IS-16)     
1 36397U 10006A   25030.02480992 -.00000236  00000+0  00000+0 0  9999
2 36397   0.0135  69.1166 0001777 241.4727 111.6263  1.00269508 54603
XM-5                    
1 37185U 10053A   25029.65982424 -.00000014  00000+0  00000+0 0  9995
2 37185   0.0246  85.6303 0000590  91.0794  74.7742  1.00267385 52434
INTELSAT 17 (IS-17)     
1 37238U 10065B   25030.41014160  .00000006  00000+0  00000+0 0  9996
2 37238   0.0067  82.1552 0002656 245.2853  16.0646  1.00271672 48190
INTELSAT 28 (IS-28)     
1 37392U 11016A   25030.32656257  .00000012  00000+0  00000+0 0  9990
2 37392   0.5017  89.6530 0004052 217.6856 304.2263  1.00142407 48243
INTELSAT 18 (IS-18)     
1 37834U 11056A   25030.43290427  .00000060  00000+0  00000+0 0  9993
2 37834   0.0156  72.1277 0001481 242.5865 151.0205  1.00272752 48777
INTELSAT 22 (IS-22)     
1 38098U 12011A   25030.17341193 -.00000051  00000+0  00000+0 0  9997
2 38098   0.0183  72.0414 0001877 247.4768 304.6211  1.00272697  2149
INTELSAT 19 (IS-19)     
1 38356U 12030A   25029.85917527 -.00000049  00000+0  00000+0 0  9995
2 38356   0.0270  90.3092 0003090 228.4150 285.9329  1.00269013 45394
INTELSAT 20 (IS-20)     
1 38740U 12043A   25030.17341193 -.00000016  00000+0  00000+0 0  9997
2 38740   0.0240  96.3199 0001995  87.1651  77.0683  1.00269735 45787
INTELSAT 21 (IS-21)     
1 38749U 12045A   25030.02845889 -.00000277  00000+0  00000+0 0  9992
2 38749   0.0196  90.5851 0001657 223.5448 127.6223  1.00266195 45477
INTELSAT 23 (IS-23)     
1 38867U 12057A   25030.10084708 -.00000277  00000+0  00000+0 0  9990
2 38867   0.0406 202.2698 0000905 213.9499  56.6226  1.00266260 44901
FM-6                    
1 39360U 13058A   25029.65965047 -.00000007  00000+0  00000+0 0  9994
2 39360   0.0090  23.5676 0000352 189.2354  37.5989  1.00269197 41015
INTELSAT 30 (IS-30)     
1 40271U 14062A   25023.44807477 -.00000124  00000+0  00000+0 0  9996
2 40271   0.0100  43.2886 0001545  83.3962  62.5665  1.00236074  1671
DIRECTV 14              
1 40333U 14078B   25029.52009902 -.00000116  00000+0  00000+0 0  9995
2 40333   0.0201 339.4302 0000416 192.2269  45.3499  1.00272332 37008
DIRECTV 15              
1 40663U 15026A   25030.16244534 -.00000094  00000+0  00000+0 0  9994
2 40663   0.0215  88.3732 0000421  70.2200 286.6375  1.00268494 35412
SKY MEXICO-1            
1 40664U 15026B   25030.31005527 -.00000226  00000+0  00000+0 0  9996
2 40664   0.0230  31.4870 0002335 297.9372 193.1892  1.00269751 35419
INTELSAT 34 (IS-34)     
1 40874U 15039A   25030.45757833 -.00000278  00000+0  00000+0 0  9999
2 40874   0.0170  65.2973 0000328 127.8720  45.9752  1.00269026 34583
INTELSAT 31 (IS-31)     
1 41581U 16035A   25029.16374696 -.00000140  00000+0  00000+0 0  9998
2 41581   0.0142  97.0407 0002016  82.4900 272.9958  1.00270494 31639
INTELSAT 36 (IS-36)     
1 41747U 16053A   25030.17341193 -.00000017  00000+0  00000+0 0  9994
2 41747   0.0102  50.3104 0001219 283.8944 286.3587  1.00270581 30907
INTELSAT 32E (IS-32E)   
1 41945U 17007B   25030.03132595 -.00000261  00000+0  00000+0 0  9994
2 41945   0.0134  81.1961 0000353  36.0391 340.3506  1.00268865 29189
INTELSAT 35E (IS-35E)   
1 42818U 17041A   25030.17599869 -.00000230  00000+0  00000+0 0  9994
2 42818   0.0159  77.7696 0002305 245.8373 194.8984  1.00270381 27772
INTELSAT 37E (IS-37E)   
1 42950U 17059A   25030.32213167 -.00000133  00000+0  00000+0 0  9993
2 42950   0.0162  73.1158 0002505 226.9116 287.7166  1.00271618 27029
AZERSPACE 2 (IS-38)     
1 43632U 18074A   25029.42688187  .00000146  00000+0  00000+0 0  9999
2 43632   0.0141  52.0658 0001414 269.0959   6.5188  1.00270253 23397
HORIZONS-3E             
1 43633U 18074B   25027.35850156 -.00000016  00000+0  00000+0 0  9994
2 43633   0.0147 274.3301 0001029  18.1950 132.3703  1.00272152 23250
AT&T T-16               
1 44333U 19034A   25030.09137712 -.00000106  00000+0  00000+0 0  9990
2 44333   0.0151  73.7692 0001246  65.8304 281.9687  1.00268606 20584
INTELSAT 39 (IS-39)     
1 44476U 19049B   25027.40862229  .00000048  00000+0  00000+0 0  9997
2 44476   0.0280  77.9058 0000939  52.9329 205.1490  1.00269632 20051
GALAXY 30 (G-30)        
1 46114U 20056C   25029.28452315  .00000047  00000+0  00000+0 0  9996
2 46114   0.0158  69.2429 0001925 247.8046 149.1452  1.00270668 16241
GALAXY 33 (G-33)        
1 54026U 22128A   25029.94167093  .00000087  00000+0  00000+0 0  9992
2 54026   0.0149  69.6808 0001832 248.2397  17.4955  1.00272460  8695
GALAXY 34 (G-34)        
1 54027U 22128B   25029.94288726  .00000067  00000+0  00000+0 0  9998
2 54027   0.0133  59.8085 0001854 247.6663  32.3647  1.00273111  8867
GALAXY 31 (G-31)        
1 54243U 22153A   25030.08738061  .00000021  00000+0  00000+0 0  9995
2 54243   0.0123 107.1688 0001286 214.1692  78.6785  1.00272018  2081
GALAXY 32 (G-32)        
1 54244U 22153B   25029.23594633 -.00000164  00000+0  00000+0 0  9995
2 54244   0.0137  68.9103 0002597 267.9626 145.7831  1.00271801  8096
GALAXY 35 (G-35)        
1 54741U 22170A   25030.30727509 -.00000154  00000+0  00000+0 0  9995
2 54741   0.0132  97.9020 0001873 216.6254 192.7480  1.00270320  7857
GALAXY 36 (G-36)        
1 54742U 22170B   25030.45097542 -.00000178  00000+0  00000+0 0  9995
2 54742   0.0214 111.0901 0001778 301.8079 150.3941  1.00270899  7731
GALAXY 37 (G-37)        
1 57493U 23112A   25030.44341682  .00000056  00000+0  00000+0 0  9998
2 57493   0.0169  32.1421 0001894 279.9506 210.4322  1.00270929  5503
